OBJECT_NAME,OBJECT_ID,EPOCH,MEAN_MOTION,ECCENTRICITY,INCLINATION,RA_OF_ASC_NODE,ARG_OF_PERICENTER,MEAN_ANOMALY,EPHEMERIS_TYPE,CLASSIFICATION_TYPE,NORAD_CAT_ID,ELEMENT_SET_NO,REV_AT_EPOCH,BSTAR,MEAN_MOTION_DOT,MEAN_MOTION_DDOT
GLOBAL-19,2023-041B,2026-06-15T09:50:42.386784,15.37989803,.00091226,41.9998,212.2489,350.7083,9.3586,0,U,55982,999,18165,.25105828E-3,.935E-4,0
BRO-9,2023-054H,2026-06-16T00:21:19.281600,16.05297283,.000811,97.2917,85.4611,166.8477,193.3017,0,U,56185,999,17890,.11793E-2,.813769E-2,.34119E-3
ION SCV-010,2023-054Q,2026-06-16T04:14:08.842272,15.26189698,.0012069,97.3782,56.6909,200.7518,159.3232,0,U,56192,999,17604,.15156E-3,.3853E-4,0
TELEOS-2,2023-057C,2026-06-15T16:33:17.844768,14.96406948,.00000736,9.9857,215.0744,310.6450,49.3757,0,U,56310,999,17257,-.31233E-7,.687E-5,0
SNIPE 4,2023-072B,2026-06-16T04:13:17.357376,15.42318732,.0004494,97.5244,13.1490,342.7456,17.3637,0,U,56744,999,16995,.41917E-3,.17993E-3,0
SNIPE 2,2023-072C,2026-06-16T05:19:11.525952,15.46810937,.0004285,97.5239,16.2333,17.4948,342.6448,0,U,56745,999,17009,.43445E-3,.21734E-3,0
2023-072G,2023-072G,2026-06-16T05:23:11.553792,15.50526620,.0002931,97.4899,15.0385,12.5036,347.6288,0,U,56749,999,17031,.43808E-3,.24959E-3,0
GEISAT PRECURSOR,2023-084C,2026-06-16T04:12:53.706240,15.34639365,.0005039,97.6225,308.0949,1.6986,358.4273,0,U,56934,999,16737,.1878E-3,.6221E-4,0
BLACKJACK ACES-3,2023-084U,2026-06-16T02:46:42.665376,15.18461787,.0002662,97.6214,302.2981,39.9672,320.1757,0,U,56950,999,16700,.23426E-3,.4757E-4,0
BLACKJACK ACES-2,2023-084Z,2026-06-16T02:55:33.703104,15.18533485,.0001057,97.6211,302.3889,73.8182,286.3168,0,U,56955,999,16701,.29409E-3,.6003E-4,0
BLACKJACK ACES-1,2023-084AA,2026-06-16T02:38:13.651008,15.18594109,.0001269,97.6202,302.1507,103.7753,256.3622,0,U,56956,999,11673,.29361E-3,.6003E-4,0
ION SCV-011,2023-084AB,2026-06-16T03:35:59.217216,15.28837532,.0008085,98.1374,354.3330,48.8941,311.2993,0,U,56957,999,16565,.15638E-3,.4297E-4,0
GHOST-3,2023-084AC,2026-06-16T03:05:58.070976,15.47850296,.0005531,97.6214,315.6438,298.3667,61.7025,0,U,56958,999,16785,.28888E-3,.14937E-3,0
TOMORROW-R2,2023-084AG,2026-06-15T23:40:57.602784,16.07337716,.0008378,97.6057,331.0488,243.8244,116.2176,0,U,56962,999,16886,.62494E-3,.490841E-2,.11947E-3
AFR-1,2023-084AJ,2026-06-16T04:26:16.807200,15.28547958,.0010041,97.6275,303.8512,350.6264,9.4786,0,U,56964,999,16707,.13949E-3,.38E-4,0
METEOR-M2 3,2023-091A,2026-06-16T04:26:29.325696,14.24046703,.0004302,98.6090,222.1839,158.0796,202.0568,0,U,57166,999,15437,.16008E-4,-.6E-7,0
UMKA 1 (RS40S),2023-091G,2026-06-16T04:08:47.404032,15.20809213,.001422,97.5050,225.8738,120.8032,239.4605,0,U,57172,999,16385,.25677E-3,.5607E-4,0
2023-091H,2023-091H,2026-06-16T04:49:32.068704,15.28618766,.0011258,97.5050,230.3849,115.9853,244.2548,0,U,57173,999,16415,.35201E-3,.9742E-4,0
2023-091J,2023-091J,2026-06-16T04:43:37.300800,15.13921340,.0014237,97.5055,220.3076,146.1252,214.0892,0,U,57174,999,16348,.16524E-3,.2934E-4,0
CUBEBEL 2 (EU11S),2023-091K,2026-06-16T04:51:15.847200,15.29131746,.0011275,97.5052,230.4101,117.6853,242.5532,0,U,57175,999,16415,.38955E-3,.10963E-3,0
SITRO-AIS 5 (KATYS),2023-091L,2026-06-16T03:41:48.505632,15.29438096,.0012768,97.5063,231.0433,106.5917,253.6726,0,U,57176,999,16418,.36318E-3,.10317E-3,0
ZORKIY-2M 1,2023-091M,2026-06-16T03:49:16.480128,15.20893215,.0014773,97.5091,226.1276,118.3796,241.8931,0,U,57177,999,16384,.27309E-3,.5984E-4,0
CUBESX-HSE 3 (RS42S),2023-091N,2026-06-16T04:38:46.290048,15.31195306,.0012044,97.5094,232.7681,97.8713,262.3895,0,U,57178,999,16427,.39383E-3,.11819E-3,0
MONITOR-3 (RS58S),2023-091Q,2026-06-16T03:36:34.115040,15.27825224,.001311,97.5085,230.5887,103.9461,256.3237,0,U,57180,999,16413,.32694E-3,.8831E-4,0
MONITOR-4 (RS57S),2023-091S,2026-06-16T03:06:29.664000,15.27909840,.0013109,97.5079,230.5388,104.4081,255.8614,0,U,57182,999,16413,.33759E-3,.9145E-4,0
MONITOR-2 (RS39S),2023-091U,2026-06-16T04:37:33.726144,15.18902958,.0012708,97.5073,225.4820,114.0890,246.1675,0,U,57184,999,16380,.20855E-3,.4291E-4,0
SVYATOBOR 1 (RS60S),2023-091X,2026-06-16T03:24:02.454048,15.26600403,.0010884,97.5091,230.9529,97.4739,262.7736,0,U,57187,999,16415,.28477E-3,.7394E-4,0
HORS 1,2023-091Y,2026-06-16T04:37:42.252960,15.26708722,.0010353,97.5069,230.7668,97.3185,262.9231,0,U,57188,999,16416,.32304E-3,.8425E-4,0
VIZARD-METEO (RS38S),2023-091Z,2026-06-16T04:05:25.271232,15.35999895,.0008326,97.5095,236.6348,80.8152,279.4033,0,U,57189,999,16453,.39377E-3,.13743E-3,0
SITRO-AIS 6 (CHIRKIN),2023-091AC,2026-06-16T04:42:29.551104,15.25919560,.0013097,97.5069,230.2104,109.4961,250.7693,0,U,57192,999,16413,.34506E-3,.88E-4,0
