GLOBAL-19               
1 55982U 23041B   26166.41021281  .00009350  00000+0  25106-3 0  9992
2 55982  41.9998 212.2489 0009122 350.7083   9.3586 15.37989803181654
BRO-9                   
1 56185U 23054H   26167.01480650  .00813769  34119-3  11793-2 0  9993
2 56185  97.2917  85.4611 0008110 166.8477 193.3017 16.05297283178908
ION SCV-010             
1 56192U 23054Q   26167.17649123  .00003853  00000+0  15156-3 0  9991
2 56192  97.3782  56.6909 0012069 200.7518 159.3232 15.26189698176045
TELEOS-2                
1 56310U 23057C   26166.68978987  .00000687  00000+0 -31233-7 0  9995
2 56310   9.9857 215.0744 0000073 310.6450  49.3757 14.96406948172575
SNIPE 4                 
1 56744U 23072B   26167.17589534  .00017993  00000+0  41917-3 0  9997
2 56744  97.5244  13.1490 0004494 342.7456  17.3637 15.42318732169952
SNIPE 2                 
1 56745U 23072C   26167.22166118  .00021734  00000+0  43445-3 0  9999
2 56745  97.5239  16.2333 0004285  17.4948 342.6448 15.46810937170096
2023-072G               
1 56749U 23072G   26167.22443928  .00024959  00000+0  43808-3 0  9995
2 56749  97.4899  15.0385 0002931  12.5036 347.6288 15.50526620170315
GEISAT PRECURSOR        
1 56934U 23084C   26167.17562160  .00006221  00000+0  18780-3 0  9991
2 56934  97.6225 308.0949 0005039   1.6986 358.4273 15.34639365167371
BLACKJACK ACES-3        
1 56950U 23084U   26167.11577159  .00004757  00000+0  23426-3 0  9992
2 56950  97.6214 302.2981 0002662  39.9672 320.1757 15.18461787167000
BLACKJACK ACES-2        
1 56955U 23084Z   26167.12191786  .00006003  00000+0  29409-3 0  9999
2 56955  97.6211 302.3889 0001057  73.8182 286.3168 15.18533485167015
BLACKJACK ACES-1        
1 56956U 23084AA  26167.10988022  .00006003  00000+0  29361-3 0  9992
2 56956  97.6202 302.1507 0001269 103.7753 256.3622 15.18594109116738
ION SCV-011             
1 56957U 23084AB  26167.14999094  .00004297  00000+0  15638-3 0  9993
2 56957  98.1374 354.3330 0008085  48.8941 311.2993 15.28837532165657
GHOST-3                 
1 56958U 23084AC  26167.12914434  .00014937  00000+0  28888-3 0  9990
2 56958  97.6214 315.6438 0005531 298.3667  61.7025 15.47850296167854
TOMORROW-R2             
1 56962U 23084AG  26166.98677781  .00490841  11947-3  62494-3 0  9998
2 56962  97.6057 331.0488 0008378 243.8244 116.2176 16.07337716168868
AFR-1                   
1 56964U 23084AJ  26167.18491675  .00003800  00000+0  13949-3 0  9999
2 56964  97.6275 303.8512 0010041 350.6264   9.4786 15.28547958167071
METEOR-M2 3             
1 57166U 23091A   26167.18506164 -.00000006  00000+0  16008-4 0  9998
2 57166  98.6090 222.1839 0004302 158.0796 202.0568 14.24046703154375
UMKA 1 (RS40S)          
1 57172U 23091G   26167.17277088  .00005607  00000+0  25677-3 0  9996
2 57172  97.5050 225.8738 0014220 120.8032 239.4605 15.20809213163853
2023-091H               
1 57173U 23091H   26167.20106561  .00009742  00000+0  35201-3 0  9996
2 57173  97.5050 230.3849 0011258 115.9853 244.2548 15.28618766164155
2023-091J               
1 57174U 23091J   26167.19695950  .00002934  00000+0  16524-3 0  9993
2 57174  97.5055 220.3076 0014237 146.1252 214.0892 15.13921340163482
CUBEBEL 2 (EU11S)       
1 57175U 23091K   26167.20226675  .00010963  00000+0  38955-3 0  9993
2 57175  97.5052 230.4101 0011275 117.6853 242.5532 15.29131746164152
SITRO-AIS 5 (KATYS)     
1 57176U 23091L   26167.15403363  .00010317  00000+0  36318-3 0  9993
2 57176  97.5063 231.0433 0012768 106.5917 253.6726 15.29438096164185
ZORKIY-2M 1             
1 57177U 23091M   26167.15921852  .00005984  00000+0  27309-3 0  9996
2 57177  97.5091 226.1276 0014773 118.3796 241.8931 15.20893215163849
CUBESX-HSE 3 (RS42S)    
1 57178U 23091N   26167.19359132  .00011819  00000+0  39383-3 0  9996
2 57178  97.5094 232.7681 0012044  97.8713 262.3895 15.31195306164278
MONITOR-3 (RS58S)       
1 57180U 23091Q   26167.15039485  .00008831  00000+0  32694-3 0  9999
2 57180  97.5085 230.5887 0013110 103.9461 256.3237 15.27825224164131
MONITOR-4 (RS57S)       
1 57182U 23091S   26167.12951000  .00009145  00000+0  33759-3 0  9996
2 57182  97.5079 230.5388 0013109 104.4081 255.8614 15.27909840164134
MONITOR-2 (RS39S)       
1 57184U 23091U   26167.19275146  .00004291  00000+0  20855-3 0  9995
2 57184  97.5073 225.4820 0012708 114.0890 246.1675 15.18902958163809
SVYATOBOR 1 (RS60S)     
1 57187U 23091X   26167.14169507  .00007394  00000+0  28477-3 0  9991
2 57187  97.5091 230.9529 0010884  97.4739 262.7736 15.26600403164158
HORS 1                  
1 57188U 23091Y   26167.19285015  .00008425  00000+0  32304-3 0  9990
2 57188  97.5069 230.7668 0010353  97.3185 262.9231 15.26708722164167
VIZARD-METEO (RS38S)    
1 57189U 23091Z   26167.17043138  .00013743  00000+0  39377-3 0  9993
2 57189  97.5095 236.6348 0008326  80.8152 279.4033 15.35999895164532
SITRO-AIS 6 (CHIRKIN)   
1 57192U 23091AC  26167.19617536  .00008800  00000+0  34506-3 0  9995
2 57192  97.5069 230.2104 0013097 109.4961 250.7693 15.25919560164134
